IRIDIUM 159             
1 43578U 18061K   25324.52859402  .00000096  00000+0  27194-4 0  9995
2 43578  86.3966 143.9468 0002156  86.7636 273.3807 14.34217620383477
IRIDIUM 176             
1 43923U 19002B   25324.36222542  .00001259  00000+0  19566-3 0  9991
2 43923  86.6081  80.8694 0001830  94.9850 265.1576 14.72258161368527
IRIDIUM 168             
1 43924U 19002C   25324.38221684  .00000352  00000+0  11849-3 0  9999
2 43924  86.3961  80.9586 0002010  92.0320 268.1106 14.34216299359048
IRIDIUM 169             
1 43926U 19002E   25324.65448470  .00000441  00000+0  13763-3 0  9991
2 43926  86.4203 112.3927 0000840  81.5176 278.6117 14.38607336360242
IRIDIUM 172             
1 43927U 19002F   25324.57249652  .00000341  00000+0  11473-3 0  9999
2 43927  86.3958  80.7837 0002108  88.8680 271.2757 14.34216053359061
IRIDIUM 175             
1 43928U 19002G   25324.62930830  .00000587  00000+0  89222-4 0  9991
2 43928  86.1528  24.4116 0002728 111.0471 249.1037 14.72234814368559
